COSMOS 2425 (716)       
1 29670U 06062A   21057.49408507  .00000084  00000-0  00000-0 0  9992
2 29670  64.8748 259.1975 0024759 349.7584 351.9751  2.13113685110304
COSMOS 2433 (720)       
1 32275U 07052A   21057.45154748 -.00000041  00000-0  00000-0 0  9992
2 32275  66.0449  20.4716 0004888 270.5062 217.1838  2.13104172103825
COSMOS 2432 (719)       
1 32276U 07052B   21057.55506425 -.00000041  00000-0  00000-0 0  9997
2 32276  66.0562  20.5604 0012283 322.4634 194.1817  2.13103543103821
COSMOS 2434 (721)       
1 32393U 07065A   21057.48378667  .00000084  00000-0  00000-0 0  9994
2 32393  64.4861 257.7101 0004890  77.0789 323.4247  2.13103110102531
COSMOS 2436 (723)       
1 32395U 07065C   21057.28124127  .00000085  00000-0  00000-0 0  9995
2 32395  64.5010 257.7680 0016143   7.0451  14.2106  2.13102959102466
COSMOS 2456 (730)       
1 36111U 09070A   21057.36497355  .00000028  00000-0  00000-0 0  9995
2 36111  64.2588 137.3919 0003838 312.1420 169.2252  2.13099128 87192
COSMOS 2457 (733)       
1 36112U 09070B   21057.58159895  .00000030  00000-0  00000-0 0  9997
2 36112  64.2417 137.2717 0005404 169.1185 241.9315  2.13101358 87207
COSMOS 2459 (731)       
1 36400U 10007A   21057.33170756 -.00000042  00000-0  00000-0 0  9995
2 36400  65.9427  19.4142 0026741 345.3135 266.6741  2.13105057 85530
COSMOS 2461 (735)       
1 36401U 10007B   21057.62896464 -.00000042  00000-0  00000-0 0  9999
2 36401  65.9387  19.3683 0021012   0.5932 121.2624  2.13103789 85554
COSMOS 2460 (732)       
1 36402U 10007C   21057.39874605 -.00000042  00000-0  00000-0 0  9997
2 36402  65.9241  19.3369 0002522 299.8507 309.0920  2.13106553 85547
COSMOS 2464 (736)       
1 37139U 10041C   21057.36407138  .00000084  00000-0  00000-0 0  9998
2 37139  64.0890 257.0263 0029104  13.8918 156.5111  2.13100765 81603
COSMOS 2471 (701K)      
1 37372U 11009A   21057.19854255 -.00000042  00000-0  00000+0 0  9993
2 37372  65.9234  19.2831 0009604 237.8375  21.1892  2.13108506 77813
COSMOS 2476 (744)       
1 37867U 11064A   21057.33774001  .00000027  00000-0  00000-0 0  9992
2 37867  64.5543 138.5613 0020450 236.9805 124.8894  2.13101843 72548
COSMOS 2477 (745)       
1 37868U 11064B   21057.57984547  .00000029  00000-0  00000-0 0  9999
2 37868  64.5644 138.6132 0017984 237.7994 128.1835  2.13101671 72501
COSMOS 2475 (743)       
1 37869U 11064C   21057.27645584  .00000027  00000-0  00000-0 0  9990
2 37869  64.5703 138.6273 0021841 258.0539 192.7779  2.13101773 72509
COSMOS 2485 (747)       
1 39155U 13019A   21057.28555066  .00000027  00000-0  00000-0 0  9998
2 39155  64.7208 138.8887 0020987 232.3117 134.0222  2.13101828 61018
COSMOS 2492 (754)       
1 39620U 14012A   21057.39884464 -.00000043  00000-0  00000-0 0  9997
2 39620  65.8140  19.0846 0015481 320.6204 167.5387  2.13103267 53965
COSMOS 2500 (755)       
1 40001U 14032A   21057.27048421 -.00000043  00000-0  00000-0 0  9996
2 40001  65.7544  18.9849 0006661 226.3588  23.2204  2.13102527 52171
COSMOS 2501 (702K)      
1 40315U 14075A   21055.79831755  .00000093  00000-0  00000-0 0  9990
2 40315  63.8039 257.9301 0015425 207.4328 158.6772  2.13101002 48552
COSMOS 2514 (751)       
1 41330U 16008A   21057.34497339 -.00000043  00000-0  00000-0 0  9991
2 41330  65.5565  18.7919 0010490 227.7622 261.8959  2.13102920 39341
COSMOS 2516 (753)       
1 41554U 16032A   21057.35970906  .00000083  00000-0  00000-0 0  9996
2 41554  64.0292 258.0168 0011107 214.2757 179.5341  2.13106775 36957
COSMOS 2522 (752)       
1 42939U 17055A   21057.47594488  .00000083  00000-0  00000-0 0  9990
2 42939  64.2639 258.2683 0005132 250.9251  97.1900  2.13101973 26706
COSMOS 2527 (756)       
1 43508U 18053A   21057.44632729  .00000029  00000-0  00000-0 0  9990
2 43508  64.8853 138.7847 0007800 229.3257 128.0781  2.13102579 20996
COSMOS 2529 (757)       
1 43687U 18086A   21057.51888769  .00000083  00000-0  00000-0 0  9999
2 43687  64.4751 258.4538 0007841 280.6668  55.9463  2.13102063 18018
COSMOS 2534 (758)       
1 44299U 19030A   21057.36960912  .00000085  00000-0  00000-0 0  9995
2 44299  64.5438 258.3008 0011422 300.1625  56.8162  2.13101980 13651
COSMOS 2544 (759)       
1 44850U 19088A   21057.46112453  .00000029  00000-0  00000-0 0  9999
2 44850  64.8701 138.6458 0011821 262.6119 149.9994  2.13102369  9443
COSMOS 2545 (760)       
1 45358U 20018A   21057.46572569 -.00000043  00000-0  00000-0 0  9993
2 45358  64.8878  19.7881 0010725 260.4283   5.8720  2.13102763  7387
